NORAD_CAT_ID,OBJECT_NAME,OBJECT_TYPE,EPOCH,MEAN_MOTION,ECCENTRICITY,INCLINATION,RA_OF_ASC_NODE,ARG_OF_PERICENTER,MEAN_ANOMALY,BSTAR,MEAN_MOTION_DOT,MEAN_MOTION_DDOT,TLE_LINE0,TLE_LINE1,TLE_LINE2,SEMIMAJOR_AXIS,PERIOD,APOGEE,PERIGEE,DECAYED
52312.0,STARLINK-3752,PAYLOAD,2024-07-17 10:53:10,15.08834699,0.0001526,53.2142,263.6388,99.4702,260.6462,7.5529e-05,9.14e-06,0.0,0 STARLINK-3752,1 52312U 22041BD  24199.45359455  .00000914  00000-0  75529-4 0  9993,2 52312  53.2142 263.6388 0001526  99.4702 260.6462 15.08834699125257,6917.897,95.438,540.817,538.706,0.0
52312.0,STARLINK-3752,PAYLOAD,2024-07-18 10:43:57,15.08849341,0.0001298,53.214,259.1815,93.7537,266.3603,0.00027853,4.149e-05,0.0,0 STARLINK-3752,1 52312U 22041BD  24200.44719043  .00004149  00000-0  27853-3 0  9998,2 52312  53.2140 259.1815 0001298  93.7537 266.3603 15.08849341125406,6917.852,95.437,540.615,538.819,0.0
52312.0,STARLINK-3752,PAYLOAD,2024-07-19 10:34:44,15.08844184,0.0001339,53.2147,254.7174,93.0684,267.0462,0.0001937,2.797e-05,0.0,0 STARLINK-3752,1 52312U 22041BD  24201.44079366  .00002797  00000-0  19370-3 0  9998,2 52312  53.2147 254.7174 0001339  93.0684 267.0462 15.08844184125551,6917.868,95.437,540.659,538.806,0.0
52312.0,STARLINK-3752,PAYLOAD,2024-07-19 20:07:03,15.08844393,0.0001418,53.2151,252.9335,91.3887,268.7268,0.00013194,1.813e-05,0.0,0 STARLINK-3752,1 52312U 22041BD  24201.83823210  .00001813  00000-0  13194-3 0  9992,2 52312  53.2151 252.9335 0001418  91.3887 268.7268 15.08844393125610,6917.867,95.437,540.713,538.751,0.0
52312.0,STARLINK-3752,PAYLOAD,2024-07-20 10:25:31,15.08841514,0.0001559,53.2157,250.2628,106.6034,253.5129,-2.1016e-05,-6.22e-06,0.0,0 STARLINK-3752,1 52312U 22041BD  24202.43439361 -.00000622  00000-0 -21016-4 0  9991,2 52312  53.2157 250.2628 0001559 106.6034 253.5129 15.08841514125702,6917.876,95.437,540.819,538.662,0.0
52312.0,STARLINK-3752,PAYLOAD,2024-07-20 19:57:50,15.08842587,0.0001563,53.2158,248.4785,106.052,254.0644,-5.0713e-06,-3.69e-06,0.0,0 STARLINK-3752,1 52312U 22041BD  24202.83183319 -.00000369  00000-0 -50713-5 0  9999,2 52312  53.2158 248.4785 0001563 106.0520 254.0644 15.08842587125760,6917.872,95.437,540.819,538.656,0.0
52312.0,STARLINK-3752,PAYLOAD,2024-07-21 11:51:42,15.08838856,0.000159,53.2167,245.5003,90.5191,269.5983,5.2176e-05,5.42e-06,0.0,0 STARLINK-3752,1 52312U 22041BD  24203.49424050  .00000542  00000-0  52176-4 0  9997,2 52312  53.2167 245.5003 0001590  90.5191 269.5983 15.08838856125864,6917.884,95.438,540.849,538.649,0.0
52312.0,STARLINK-3752,PAYLOAD,2024-07-22 11:42:29,15.08844045,0.000165,53.217,241.0383,90.3292,269.7889,0.00013355,1.838e-05,0.0,0 STARLINK-3752,1 52312U 22041BD  24204.48783762  .00001838  00000-0  13355-3 0  9999,2 52312  53.2170 241.0383 0001650  90.3292 269.7889 15.08844045126019,6917.868,95.437,540.874,538.592,0.0
52312.0,STARLINK-3752,PAYLOAD,2024-07-23 09:57:53,15.08844884,0.0001524,53.2137,236.8767,84.3497,275.7669,0.00016169,2.287e-05,0.0,0 STARLINK-3752,1 52312U 22041BD  24205.41519771  .00002287  00000-0  16169-3 0  9995,2 52312  53.2137 236.8767 0001524  84.3497 275.7669 15.08844884126159,6917.865,95.437,540.785,538.676,0.0
52312.0,STARLINK-3752,PAYLOAD,2024-07-24 08:13:17,15.08838534,0.0001511,53.2152,232.7129,88.2977,271.8188,1.5765e-06,-2.63e-06,0.0,0 STARLINK-3752,1 52312U 22041BD  24206.34256493 -.00000263  00000-0  15765-5 0  9993,2 52312  53.2152 232.7129 0001511  88.2977 271.8188 15.08838534126298,6917.885,95.438,540.795,538.705,0.0
52312.0,STARLINK-3752,PAYLOAD,2024-07-25 06:28:41,15.08842886,0.0001535,53.2156,228.5511,87.8317,272.2851,9.1885e-05,1.175e-05,0.0,0 STARLINK-3752,1 52312U 22041BD  24207.26991972  .00001175  00000-0  91885-4 0  9991,2 52312  53.2156 228.5511 0001535  87.8317 272.2851 15.08842886126432,6917.872,95.437,540.798,538.675,0.0
52312.0,STARLINK-3752,PAYLOAD,2024-07-25 08:04:04,15.08842111,0.0001502,53.2156,228.2535,92.1669,267.9495,0.00012404,1.687e-05,0.0,0 STARLINK-3752,1 52312U 22041BD  24207.33615917  .00001687  00000-0  12404-3 0  9998,2 52312  53.2156 228.2535 0001502  92.1669 267.9495 15.08842111126445,6917.874,95.437,540.778,538.7,0.0
52312.0,STARLINK-3752,PAYLOAD,2024-07-26 07:54:51,15.08840527,0.0001505,53.2155,223.7935,95.9385,264.1779,9.1428e-05,1.167e-05,0.0,0 STARLINK-3752,1 52312U 22041BD  24208.32976021  .00001167  00000-0  91428-4 0  9991,2 52312  53.2155 223.7935 0001505  95.9385 264.1779 15.08840527126596,6917.879,95.438,540.785,538.703,0.0
52312.0,STARLINK-3752,PAYLOAD,2024-07-27 06:10:15,15.08842849,0.0001479,53.2149,219.6288,90.3867,269.7294,4.4787e-05,4.25e-06,0.0,0 STARLINK-3752,1 52312U 22041BD  24209.25711924  .00000425  00000-0  44787-4 0  9995,2 52312  53.2149 219.6288 0001479  90.3867 269.7294 15.08842849126736,6917.872,95.437,540.76,538.714,0.0
52312.0,STARLINK-3752,PAYLOAD,2024-07-27 07:45:38,15.08845387,0.0001515,53.2152,219.3315,91.3297,268.7869,6.4179e-05,7.34e-06,0.0,0 STARLINK-3752,1 52312U 22041BD  24209.32335689  .00000734  00000-0  64179-4 0  9993,2 52312  53.2152 219.3315 0001515  91.3297 268.7869 15.08845387126745,6917.864,95.437,540.777,538.681,0.0
52312.0,STARLINK-3752,PAYLOAD,2024-07-28 04:25:39,15.08836699,0.0001707,53.2155,215.4678,117.0986,243.018,2.449e-05,1.02e-06,0.0,0 STARLINK-3752,1 52312U 22041BD  24210.18448315  .00000102  00000-0  24490-4 0  9991,2 52312  53.2155 215.4678 0001707 117.0986 243.0180 15.08836699126873,6917.89,95.438,540.936,538.575,0.0
52312.0,STARLINK-3752,PAYLOAD,2024-07-28 07:36:25,15.0883441,0.0001712,53.2159,214.8737,113.514,246.6032,-2.4206e-05,-6.73e-06,0.0,0 STARLINK-3752,1 52312U 22041BD  24210.31696651 -.00000673  00000-0 -24206-4 0  9994,2 52312  53.2159 214.8737 0001712 113.5140 246.6032 15.08834410126891,6917.897,95.438,540.947,538.578,0.0
52312.0,STARLINK-3752,PAYLOAD,2024-07-29 09:02:36,15.08838592,0.0001487,53.2156,210.114,100.5453,259.5707,5.8045e-06,-1.96e-06,0.0,0 STARLINK-3752,1 52312U 22041BD  24211.37680654 -.00000196  00000-0  58045-5 0  9995,2 52312  53.2156 210.1140 0001487 100.5453 259.5707 15.08838592127053,6917.885,95.438,540.778,538.721,0.0
52312.0,STARLINK-3752,PAYLOAD,2024-07-30 07:17:59,15.08840579,0.0001341,53.2149,205.9499,96.5853,263.5291,0.00013091,1.796e-05,0.0,0 STARLINK-3752,1 52312U 22041BD  24212.30416360  .00001796  00000-0  13091-3 0  9996,2 52312  53.2149 205.9499 0001341  96.5853 263.5291 15.08840579127197,6917.879,95.438,540.671,538.816,0.0
52312.0,STARLINK-3752,PAYLOAD,2024-07-30 16:50:18,15.08838496,0.0001374,53.2151,204.1647,86.0805,274.0344,9.3163e-05,1.195e-05,0.0,0 STARLINK-3752,1 52312U 22041BD  24212.70160715  .00001195  00000-0  93163-4 0  9992,2 52312  53.2151 204.1647 0001374  86.0805 274.0344 15.08838496127251,6917.885,95.438,540.701,538.799,0.0
52312.0,STARLINK-3752,PAYLOAD,2024-07-31 05:33:24,15.08839144,0.000135,53.2147,201.7843,91.6267,268.488,5.7988e-05,6.35e-06,0.0,0 STARLINK-3752,1 52312U 22041BD  24213.23152877  .00000635  00000-0  57988-4 0  9994,2 52312  53.2147 201.7843 0001350  91.6267 268.4880 15.08839144127337,6917.883,95.438,540.682,538.814,0.0
52312.0,STARLINK-3752,PAYLOAD,2024-07-31 23:02:38,15.08849621,0.0001433,53.215,198.5139,89.5183,270.5973,-4.0481e-05,-9.32e-06,0.0,0 STARLINK-3752,1 52312U 22041BD  24213.96016664 -.00000932  00000-0 -40481-4 0  9999,2 52312  53.2150 198.5139 0001433  89.5183 270.5973 15.08849621127447,6917.851,95.437,540.707,538.725,0.0
52312.0,STARLINK-3752,PAYLOAD,2024-08-01 05:24:10,15.08850069,0.0001379,53.2149,197.325,91.9604,268.1546,6.5484e-05,7.55e-06,0.0,0 STARLINK-3752,1 52312U 22041BD  24214.22512108  .00000755  00000-0  65484-4 0  9994,2 52312  53.2149 197.3250 0001379  91.9604 268.1546 15.08850069127481,6917.85,95.437,540.669,538.761,0.0
52312.0,STARLINK-3752,PAYLOAD,2024-08-01 16:31:52,15.08838275,0.0001346,53.2142,195.2437,91.7615,268.3532,0.00013844,1.916e-05,0.0,0 STARLINK-3752,1 52312U 22041BD  24214.68880591  .00001916  00000-0  13844-3 0  9990,2 52312  53.2142 195.2437 0001346  91.7615 268.3532 15.08838275127552,6917.886,95.438,540.682,538.82,0.0
52312.0,STARLINK-3752,PAYLOAD,2024-08-02 08:25:43,15.08843436,0.0001477,53.2164,192.2683,101.3557,258.7601,0.00012085,1.636e-05,0.0,0 STARLINK-3752,1 52312U 22041BD  24215.35120143  .00001636  00000-0  12085-3 0  9990,2 52312  53.2164 192.2683 0001477 101.3557 258.7601 15.08843436127650,6917.87,95.437,540.757,538.713,0.0
52312.0,STARLINK-3752,PAYLOAD,2024-08-03 05:05:45,15.08837729,0.0001268,53.2147,188.4048,87.6431,272.4706,-9.5816e-06,-4.4e-06,0.0,0 STARLINK-3752,1 52312U 22041BD  24216.21233038 -.00000440  00000-0 -95816-5 0  9993,2 52312  53.2147 188.4048 0001268  87.6431 272.4706 15.08837729127789,6917.887,95.438,540.63,538.875,0.0
52312.0,STARLINK-3752,PAYLOAD,2024-08-03 14:38:04,15.08838516,0.0001268,53.2155,186.618,87.2154,272.8983,1.5148e-05,-4.7e-07,0.0,0 STARLINK-3752,1 52312U 22041BD  24216.60976946 -.00000047  00000-0  15148-4 0  9999,2 52312  53.2155 186.6180 0001268  87.2154 272.8983 15.08838516127846,6917.885,95.438,540.627,538.873,0.0
52312.0,STARLINK-3752,PAYLOAD,2024-08-03 22:34:59,15.08837947,0.0001206,53.2153,185.1328,89.5549,270.5582,2.78e-05,1.55e-06,0.0,0 STARLINK-3752,1 52312U 22041BD  24216.94097026  .00000155  00000-0  27800-4 0  9996,2 52312  53.2153 185.1328 0001206  89.5549 270.5582 15.08837947127899,6917.887,95.438,540.586,538.917,0.0
52312.0,STARLINK-3752,PAYLOAD,2024-08-04 04:56:31,15.08846222,0.0001223,53.2156,183.9457,90.9646,269.1487,9.9857e-05,1.302e-05,0.0,0 STARLINK-3752,1 52312U 22041BD  24217.20592380  .00001302  00000-0  99857-4 0  9995,2 52312  53.2156 183.9457 0001223  90.9646 269.1487 15.08846222127933,6917.861,95.437,540.572,538.88,0.0
52312.0,STARLINK-3752,PAYLOAD,2024-08-04 14:28:50,15.08848393,0.0001239,53.2154,182.1611,88.6073,271.5061,6.6636e-05,7.73e-06,0.0,0 STARLINK-3752,1 52312U 22041BD  24217.60336243  .00000773  00000-0  66636-4 0  9993,2 52312  53.2154 182.1611 0001239  88.6073 271.5061 15.08848393127991,6917.855,95.437,540.577,538.863,0.0
